{
    "links": {
        "self": "http://www.neowsapp.com/rest/v1/neo/3276600?api_key=iIulBulltgU6a56xZRHN4H3l9WmuAYTsLGpBGhQ2"
    },
    "id": "3276600",
    "neo_reference_id": "3276600",
    "name": "(2005 GA120)",
    "designation": "2005 GA120",
    "nasa_jpl_url": "http://ssd.jpl.nasa.gov/sbdb.cgi?sstr=3276600",
    "absolute_magnitude_h": 24.9,
    "estimated_diameter": {
        "kilometers": {
            "estimated_diameter_min": 0.0278326768,
            "estimated_diameter_max": 0.0622357573
        },
        "meters": {
            "estimated_diameter_min": 27.8326768072,
            "estimated_diameter_max": 62.2357573367
        },
        "miles": {
            "estimated_diameter_min": 0.0172944182,
            "estimated_diameter_max": 0.0386714948
        },
        "feet": {
            "estimated_diameter_min": 91.3145593761,
            "estimated_diameter_max": 204.1855621004
        }
    },
    "is_potentially_hazardous_asteroid": false,
    "close_approach_data": [
        {
            "close_approach_date": "2002-04-30",
            "close_approach_date_full": "2002-Apr-30 00:57",
            "epoch_date_close_approach": 1020128220000,
            "relative_velocity": {
                "kilometers_per_second": "24.0373297919",
                "kilometers_per_hour": "86534.3872510132",
                "miles_per_hour": "53769.1030116087"
            },
            "miss_distance": {
                "astronomical": "0.4342230976",
                "lunar": "168.9127849664",
                "kilometers": "64958850.505762112",
                "miles": "40363558.0212246656"
            },
            "orbiting_body": "Earth"
        },
        {
            "close_approach_date": "2005-04-06",
            "close_approach_date_full": "2005-Apr-06 04:57",
            "epoch_date_close_approach": 1112763420000,
            "relative_velocity": {
                "kilometers_per_second": "12.7033773816",
                "kilometers_per_hour": "45732.1585737226",
                "miles_per_hour": "28416.1848648778"
            },
            "miss_distance": {
                "astronomical": "0.0053729272",
                "lunar": "2.0900686808",
                "kilometers": "803778.464785064",
                "miles": "499444.7784553232"
            },
            "orbiting_body": "Moon"
        },
        {
            "close_approach_date": "2005-04-06",
            "close_approach_date_full": "2005-Apr-06 11:28",
            "epoch_date_close_approach": 1112786880000,
            "relative_velocity": {
                "kilometers_per_second": "12.1441571485",
                "kilometers_per_hour": "43718.9657346486",
                "miles_per_hour": "27165.2651255098"
            },
            "miss_distance": {
                "astronomical": "0.0047377034",
                "lunar": "1.8429666226",
                "kilometers": "708750.337331758",
                "miles": "440397.0381359404"
            },
            "orbiting_body": "Earth"
        },
        {
            "close_approach_date": "2007-11-06",
            "close_approach_date_full": "2007-Nov-06 05:57",
            "epoch_date_close_approach": 1194328620000,
            "relative_velocity": {
                "kilometers_per_second": "7.4183152858",
                "kilometers_per_hour": "26705.9350290589",
                "miles_per_hour": "16594.0294629172"
            },
            "miss_distance": {
                "astronomical": "0.2277807995",
                "lunar": "88.6067310055",
                "kilometers": "34075522.432097065",
                "miles": "21173547.808846897"
            },
            "orbiting_body": "Earth"
        }
    ],
    "orbital_data": {
        "orbit_id": "6",
        "orbit_determination_date": "2017-04-06 09:11:05",
        "first_observation_date": "2005-04-11",
        "last_observation_date": "2005-04-13",
        "data_arc_in_days": 2,
        "observations_used": 16,
        "orbit_uncertainty": "8",
        "minimum_orbit_intersection": ".00438281",
        "jupiter_tisserand_invariant": "4.941",
        "epoch_osculation": "2453472.5",
        "eccentricity": ".3862879947387132",
        "semi_major_axis": "1.286524491930917",
        "inclination": "12.26161469567747",
        "ascending_node_longitude": "197.7774432894643",
        "orbital_period": "532.9979203343613",
        "perihelion_distance": ".7895555257606814",
        "perihelion_argument": "282.6294873720909",
        "aphelion_distance": "1.783493458101153",
        "perihelion_time": "2453412.110938044079",
        "mean_anomaly": "40.78826853675816",
        "mean_motion": ".6754247742170628",
        "equinox": "J2000",
        "orbit_class": {
            "orbit_class_type": "APO",
            "orbit_class_description": "Near-Earth asteroid orbits which cross the Earth’s orbit similar to that of 1862 Apollo",
            "orbit_class_range": "a (semi-major axis) > 1.0 AU; q (perihelion) < 1.017 AU"
        }
    },
    "is_sentry_object": false
}